satname,norad_id,inclination_deg,eccentricity,mean_motion_rev_per_day,perigee_km,apogee_km,l1,l2
STARLINK-1360,45588,53.0424,0.0003276,15.83982209,316.99807800655435,321.3861680479622,1 45588U 20025BK  25333.91670139  .00128256  00000+0  55652-3 0  9990,2 45588  53.0424  53.2366 0003276 343.3331 224.7141 15.83982209  5994
STARLINK-1364,45589,53.053,0.00014,15.06401003,546.2389355216965,548.1780322571867,1 45589U 20025BL  25333.83718944  .00001365  00000+0  11051-3 0  9995,2 45589  53.0530 164.8764 0001400  93.8055 266.3094 15.06401003310453
STARLINK-1365,45590,53.0533,0.0001749,15.06396154,546.0120998750199,548.4345909238409,1 45590U 20025BM  25333.65381718  .00000226  00000+0  34109-4 0  9997,2 45590  53.0533 195.6942 0001749  93.2963 266.8226 15.06396154310021
STARLINK-1443,45660,53.0521,0.0001458,15.06410016,546.1711491668711,548.190571854997,1 45660U 20035D   25333.63908172  .00004183  00000+0  29945-3 0  9990,2 45660  53.0521 155.7653 0001458  91.4817 268.6339 15.06410016303657
STARLINK-1446,45663,53.0249,3.44e-05,15.36410624,456.49864042905574,456.9688795373431,1 45663U 20035G   25333.68926419  .00027813  00000+0  77966-3 0  9993,2 45663  53.0249 112.4850 0000344 204.4056 155.6930 15.36410624304268
STARLINK-1448,45665,53.0541,0.0001565,15.06395072,546.1428421766514,548.3104810027289,1 45665U 20035J   25332.84659334  .00002210  00000+0  16726-3 0  9992,2 45665  53.0541 159.3188 0001565  94.1328 265.9840 15.06395072303520
STARLINK-1451,45668,53.0528,0.0001351,15.06403074,546.2665232696827,548.1377499043892,1 45668U 20035M   25333.77917274  .00002686  00000+0  19910-3 0  9993,2 45668  53.0528 155.4522 0001351  89.9558 270.1586 15.06403074303670
STARLINK-1452,45669,53.0385,0.0010889,15.29709535,469.21569064681717,484.144110893315,1 45669U 20035N   25333.73112359  .00072654  00000+0  24744-2 0  9993,2 45669  53.0385 132.1460 0010889 120.3305 239.8773 15.29709535303992
STARLINK-1453,45670,53.0534,0.0001391,15.12594196,527.3313698341126,529.2527383969673,1 45670U 20035P   25333.91670139  .00034809  00000+0  19786-2 0  9990,2 45670  53.0534 124.0654 0001391  90.8955 115.3015 15.12594196  5785
STARLINK-1454,45671,53.0544,0.0001533,15.06386766,546.190456387304,548.3137806910481,1 45671U 20035Q   25333.80127025 -.00001410  00000+0 -75783-4 0  9995,2 45671  53.0544 155.0385 0001533  97.2974 262.8190 15.06386766303667
STARLINK-1456,45673,53.0539,0.0001346,15.06371611,546.3664038735833,548.2307311283539,1 45673U 20035S   25333.81602019 -.00002949  00000+0 -17931-3 0  9997,2 45673  53.0539 154.9722 0001346 100.2968 259.8172 15.06371611303687
STARLINK-1457,45674,53.0526,0.0001598,15.4472726,431.0912939727732,433.2678711525605,1 45674U 20035T   25333.78232744  .00115658  00000+0  24095-2 0  9996,2 45674  53.0526 149.7593 0001598 196.2938 163.8017 15.44727260303727
STARLINK-1458,45675,53.0539,0.0001411,15.06389126,546.2677139985872,548.2220567666418,1 45675U 20035U   25333.81231272  .00001174  00000+0  97737-4 0  9998,2 45675  53.0539 154.9848 0001411  91.6062 268.5088 15.06389126303648
STARLINK-1460,45676,53.0531,0.000138,15.06399803,546.2564635306544,548.1678598992867,1 45676U 20035V   25333.65012536  .00001180  00000+0  98121-4 0  9996,2 45676  53.0531 155.7126 0001380  90.0842 270.0305 15.06399803303613
STARLINK-1392,45677,53.0534,0.0001524,15.06406167,546.1372367962376,548.2480772757017,1 45677U 20035W   25333.79387145  .00001244  00000+0  10236-3 0  9994,2 45677  53.0534 155.0706 0001524  95.1600 264.9563 15.06406167303678
STARLINK-1394,45679,53.0536,0.0001323,15.06399,546.2983987762509,548.1308468156421,1 45679U 20035Y   25333.72476220  .00000427  00000+0  47565-4 0  9990,2 45679  53.0536 145.3784 0001323  93.9001 266.2139 15.06399000303804
STARLINK-1402,45685,53.0536,0.0003568,15.29879411,473.72683992458497,478.61807515348573,1 45685U 20035AE  25333.83468001  .00055022  00000+0  18742-2 0  9991,2 45685  53.0536 133.1405 0003568 190.1803 169.9125 15.29879411303997
STARLINK-1404,45686,53.0536,0.0001332,15.06399453,546.2907777637774,548.1356910662271,1 45686U 20035AF  25333.75056781  .00001172  00000+0  97594-4 0  9992,2 45686  53.0536 145.2657 0001332  90.5205 269.5937 15.06399453303814
STARLINK-1413,45689,53.0542,0.0001453,15.06402191,546.1985906772125,548.2110950167435,1 45689U 20035AJ  25333.76899109  .00000935  00000+0  81629-4 0  9993,2 45689  53.0542 145.1784 0001453  94.4764 265.6391 15.06402191303726
STARLINK-1417,45693,53.0524,0.0001256,15.06865939,544.9142455295905,546.6535344571566,1 45693U 20035AN  25333.82958818  .00018516  00000+0  12430-2 0  9994,2 45693  53.0524 144.8874 0001256 131.3451 228.7647 15.06865939303819
STARLINK-1420,45695,53.0541,0.0001298,15.0638961,546.344487598697,548.1423163510499,1 45695U 20035AQ  25333.69986147 -.00001272  00000+0 -66547-4 0  9990,2 45695  53.0541 125.4797 0001298  80.8428 279.2708 15.06389610304083
STARLINK-1422,45696,53.0531,0.0001408,15.06397593,546.2438449407728,548.1940251720862,1 45696U 20035AR  25333.64367535  .00000350  00000+0  42400-4 0  9996,2 45696  53.0531 145.7448 0001408  94.9253 265.1897 15.06397593303784
STARLINK-1351,45697,53.0546,0.0001297,15.06394699,546.3295849722563,548.1260246026177,1 45697U 20035AS  25333.68606126  .00001918  00000+0  14767-3 0  9998,2 45697  53.0546 125.5535 0001297  90.9063 269.2074 15.06394699304085
STARLINK-1398,45699,53.048,0.0002233,15.56212876,397.1159866862472,400.14249048840065,1 45699U 20035AU  25333.58078375  .00048815  00000+0  68650-3 0  9995,2 45699  53.0480  75.8157 0002233 215.8579 144.2282 15.56212876304772
STARLINK-1400,45700,53.0545,0.0001331,15.06402748,546.2813729547997,548.1248984989306,1 45700U 20035AV  25333.72660590  .00001241  00000+0  10218-3 0  9999,2 45700  53.0545 125.3694 0001331  90.4791 269.6350 15.06402748304081
STARLINK-1403,45701,53.0537,0.0001288,15.06398316,546.3247336015174,548.1087047195733,1 45701U 20035AW  25333.68974720  .00000503  00000+0  52681-4 0  9999,2 45701  53.0537 125.5360 0001288  86.4899 273.6237 15.06398316304073
STARLINK-1407,45703,53.0408,0.0010023,15.44421528,426.25144701342924,439.90520926021236,1 45703U 20035AY  25333.56752378  .00023156  00000+0  49975-3 0  9991,2 45703  53.0408  77.1098 0010023 148.8747 211.2854 15.44421528304756
STARLINK-1411,45706,53.0507,0.0001051,15.44549318,431.9868147435309,433.4184532345953,1 45706U 20035BB  25333.77647992  .00047123  00000+0  10018-2 0  9997,2 45706  53.0507 103.3530 0001051 319.4756  40.6171 15.44549318304393
STARLINK-1423,45710,53.0533,0.0001266,15.0639988,546.3351765470225,548.0886748950152,1 45710U 20035BF  25333.71554476  .00001316  00000+0  10719-3 0  9993,2 45710  53.0533 125.4202 0001266  92.9980 267.1154 15.06399880304086
STARLINK-1433,45711,53.0543,0.0001247,15.0639988,546.3483347099818,548.0755167320558,1 45711U 20035BG  25333.69712058  .00001323  00000+0  10768-3 0  9995,2 45711  53.0543 125.5012 0001247  88.3392 271.7740 15.06399880304074
STARLINK-1434,45712,53.0478,0.0005533,15.17461489,509.70264188638157,517.3289448675323,1 45712U 20035BH  25333.79714792  .00029730  00000+0  14760-2 0  9991,2 45712  53.0478 119.1534 0005533 157.9021 202.2212 15.17461489304186
STARLINK-1465,45731,53.0558,0.0001529,15.06392182,546.1766296277401,548.2944085440758,1 45731U 20038B   25333.26587513  .00001747  00000+0  13617-3 0  9995,2 45731  53.0558 327.4387 0001529  88.6709 271.4455 15.06392182301051
STARLINK-1471,45735,53.0503,0.000166,15.42419606,437.83897761031676,440.1022573393193,1 45735U 20038F   25333.53170656  .00020867  00000+0  48343-3 0  9993,2 45735  53.0503 259.2881 0001660  86.1528 273.9666 15.42419606302046
STARLINK-1474,45738,53.0341,0.000376,15.72738829,348.5431309701553,353.6034971263198,1 45738U 20038J   25333.81432524  .00088980  00000+0  64395-3 0  9997,2 45738  53.0341 209.2647 0003760 101.2366 258.9075 15.72738829302766
STARLINK-1475,45739,53.0398,0.0001856,15.98225973,278.1050437804788,280.5762994921897,1 45739U 20038K   25333.91670139  .00493364  11404-3  10453-2 0  9990,2 45739  53.0398 171.6047 0001856 201.8642  20.1948 15.98225973  5906
STARLINK-1480,45741,53.0534,0.0001332,15.06393071,546.310335150105,548.1552536633353,1 45741U 20038M   25333.24744445  .00001321  00000+0  10757-3 0  9993,2 45741  53.0534 327.5189 0001332  90.2584 269.8557 15.06393071301062
STARLINK-1500,45744,53.0384,0.0001701,15.29090355,477.3639537388681,479.6965919450895,1 45744U 20038Q   25333.20641285  .00024984  00000+0  88230-3 0  9991,2 45744  53.0384 302.0353 0001701   3.0365 357.0644 15.29090355301418
STARLINK-1504,45746,53.0284,0.0003112,15.43189058,434.5835910917194,438.8251483602371,1 45746U 20038S   25333.80689096  .00035154  00000+0  78590-3 0  9990,2 45746  53.0284 261.0141 0003112  54.3592 305.7702 15.43189058302036
STARLINK-1506,45747,53.0655,0.0002613,15.22490462,496.53462141937234,500.1282638274879,1 45747U 20038T   25333.21923350  .00043174  00000+0  18433-2 0  9990,2 45747  53.0655 305.8637 0002613   1.2844 358.8159 15.22490462301363
STARLINK-1464,45751,53.0574,0.0001527,15.06398938,546.1573115954161,548.2723140390499,1 45751U 20038X   25333.64736477  .00001158  00000+0  96631-4 0  9998,2 45751  53.0574 305.7260 0001527  89.4397 270.6767 15.06398938301401
STARLINK-1477,45754,53.0531,0.0004864,15.08322943,537.9586508604389,544.6899027905347,1 45754U 20038AA  25333.24244130  .00029459  00000+0  18872-2 0  9990,2 45754  53.0531 307.3148 0004864  59.9130 300.2341 15.08322943301340
STARLINK-1478,45755,53.0535,0.0001326,15.06402281,546.2862667188365,548.1228673024079,1 45755U 20038AB  25333.21611590  .00005018  00000+0  35553-3 0  9997,2 45755  53.0535 307.6608 0001326  87.0389 273.0752 15.06402281301320
STARLINK-1484,45756,53.0136,0.0003375,15.66924911,365.43168875034826,369.9851344031631,1 45756U 20038AC  25333.02148260  .00084499  00000+0  77877-3 0  9991,2 45756  53.0136 202.3782 0003375 121.2373 238.8973 15.66924911302782
